[
    {
        "Altitude(m)": 705123.2973755698,
        "Argument of Periapsis(deg)": 0.004556048474650827,
        "Eccentricity": 0.0,
        "Inclination(deg)": 45.0,
        "Latitude(deg)": 34.871089685762065,
        "Longitude(deg)": -136.413734367334,
        "Mean Anomaly(deg)": 53.70418665899234,
        "RAAN(deg)": 279.99569922341675,
        "Satellite Name": "Constellation 1 1235",
        "Satellite Number": 1235,
        "Semi-Major Axis(m)": 7083131.272910544,
        "Time(s)": 76
    },
    {
        "Altitude(m)": 705129.2515919327,
        "Argument of Periapsis(deg)": 0.004615996480896233,
        "Eccentricity": 0.0,
        "Inclination(deg)": 45.0,
        "Latitude(deg)": 34.9021343320054,
        "Longitude(deg)": -136.35427155278316,
        "Mean Anomaly(deg)": 53.764887799242224,
        "RAAN(deg)": 279.99564263425117,
        "Satellite Name": "Constellation 1 1235",
        "Satellite Number": 1235,
        "Semi-Major Axis(m)": 7083131.272910544,
        "Time(s)": 77
    },
    {
        "Altitude(m)": 705135.2043873437,
        "Argument of Periapsis(deg)": 0.004675944487141638,
        "Eccentricity": 0.0,
        "Inclination(deg)": 45.0,
        "Latitude(deg)": 34.93314555470445,
        "Longitude(deg)": -136.2947609339117,
        "Mean Anomaly(deg)": 53.82558893949216,
        "RAAN(deg)": 279.99558604508553,
        "Satellite Name": "Constellation 1 1235",
        "Satellite Number": 1235,
        "Semi-Major Axis(m)": 7083131.272910544,
        "Time(s)": 78
    },
    {
        "Altitude(m)": 705141.1557238431,
        "Argument of Periapsis(deg)": 0.004735892493387044,
        "Eccentricity": 0.0,
        "Inclination(deg)": 45.0,
        "Latitude(deg)": 34.96412329095408,
        "Longitude(deg)": -136.23520247107032,
        "Mean Anomaly(deg)": 53.88629007974205,
        "RAAN(deg)": 279.99552945592,
        "Satellite Name": "Constellation 1 1235",
        "Satellite Number": 1235,
        "Semi-Major Axis(m)": 7083131.272910544,
        "Time(s)": 79
    },
    {
        "Altitude(m)": 705147.1055635073,
        "Argument of Periapsis(deg)": 0.004795840499632449,
        "Eccentricity": 0.0,
        "Inclination(deg)": 45.0,
        "Latitude(deg)": 34.99506747778493,
        "Longitude(deg)": -136.17559612480858,
        "Mean Anomaly(deg)": 53.94699121999193,
        "RAAN(deg)": 279.9954728667544,
        "Satellite Name": "Constellation 1 1235",
        "Satellite Number": 1235,
        "Semi-Major Axis(m)": 7083131.272910544,
        "Time(s)": 80
    },
    {
        "Altitude(m)": 705153.0538684254,
        "Argument of Periapsis(deg)": 0.004855788505877855,
        "Eccentricity": 0.0,
        "Inclination(deg)": 45.0,
        "Latitude(deg)": 35.02597805216353,
        "Longitude(deg)": -136.1159418558764,
        "Mean Anomaly(deg)": 54.00769236024177,
        "RAAN(deg)": 279.99541627758884,
        "Satellite Name": "Constellation 1 1235",
        "Satellite Number": 1235,
        "Semi-Major Axis(m)": 7083131.272910544,
        "Time(s)": 81
    },
    {
        "Altitude(m)": 705159.00060072,
        "Argument of Periapsis(deg)": 0.00491573651212326,
        "Eccentricity": 0.0,
        "Inclination(deg)": 45.0,
        "Latitude(deg)": 35.056854950992914,
        "Longitude(deg)": -136.05623979332162,
        "Mean Anomaly(deg)": 54.06839350049175,
        "RAAN(deg)": 279.9953596884233,
        "Satellite Name": "Constellation 1 1235",
        "Satellite Number": 1235,
        "Semi-Major Axis(m)": 7083131.272910544,
        "Time(s)": 82
    },
    {
        "Altitude(m)": 705164.9457225245,
        "Argument of Periapsis(deg)": 0.004975684518368666,
        "Eccentricity": 0.0,
        "Inclination(deg)": 45.0,
        "Latitude(deg)": 35.08769811111158,
        "Longitude(deg)": -135.99648956210456,
        "Mean Anomaly(deg)": 54.12909464074165,
        "RAAN(deg)": 279.9953030992577,
        "Satellite Name": "Constellation 1 1235",
        "Satellite Number": 1235,
        "Semi-Major Axis(m)": 7083131.272910544,
        "Time(s)": 83
    },
    {
        "Altitude(m)": 705170.8891960124,
        "Argument of Periapsis(deg)": 0.005035632524614072,
        "Eccentricity": 0.0,
        "Inclination(deg)": 45.0,
        "Latitude(deg)": 35.11850746929523,
        "Longitude(deg)": -135.93669129167967,
        "Mean Anomaly(deg)": 54.18979578099148,
        "RAAN(deg)": 279.99524651009216,
        "Satellite Name": "Constellation 1 1235",
        "Satellite Number": 1235,
        "Semi-Major Axis(m)": 7083131.272910544,
        "Time(s)": 84
    },
    {
        "Altitude(m)": 705176.8309833676,
        "Argument of Periapsis(deg)": 0.0050955805308594785,
        "Eccentricity": 0.0,
        "Inclination(deg)": 45.0,
        "Latitude(deg)": 35.1492829622561,
        "Longitude(deg)": -135.87684494360974,
        "Mean Anomaly(deg)": 54.250496921241414,
        "RAAN(deg)": 279.9951899209266,
        "Satellite Name": "Constellation 1 1235",
        "Satellite Number": 1235,
        "Semi-Major Axis(m)": 7083131.272910544,
        "Time(s)": 85
    },
    {
        "Altitude(m)": 705182.7710468067,
        "Argument of Periapsis(deg)": 0.005155528537104883,
        "Eccentricity": 0.0,
        "Inclination(deg)": 45.0,
        "Latitude(deg)": 35.18002452664319,
        "Longitude(deg)": -135.81695047966397,
        "Mean Anomaly(deg)": 54.311198061491304,
        "RAAN(deg)": 279.995133331761,
        "Satellite Name": "Constellation 1 1235",
        "Satellite Number": 1235,
        "Semi-Major Axis(m)": 7083131.272910544,
        "Time(s)": 86
    },
    {
        "Altitude(m)": 705188.7093485665,
        "Argument of Periapsis(deg)": 0.0052154765433502885,
        "Eccentricity": 0.0,
        "Inclination(deg)": 45.0,
        "Latitude(deg)": 35.21073209904254,
        "Longitude(deg)": -135.75700786181898,
        "Mean Anomaly(deg)": 54.371899201741186,
        "RAAN(deg)": 279.9950767425955,
        "Satellite Name": "Constellation 1 1235",
        "Satellite Number": 1235,
        "Semi-Major Axis(m)": 7083131.272910544,
        "Time(s)": 87
    },
    {
        "Altitude(m)": 705194.6458509106,
        "Argument of Periapsis(deg)": 0.005275424549595694,
        "Eccentricity": 0.0,
        "Inclination(deg)": 45.0,
        "Latitude(deg)": 35.241405615977435,
        "Longitude(deg)": -135.69701705226038,
        "Mean Anomaly(deg)": 54.432600341991076,
        "RAAN(deg)": 279.99502015342983,
        "Satellite Name": "Constellation 1 1235",
        "Satellite Number": 1235,
        "Semi-Major Axis(m)": 7083131.272910544,
        "Time(s)": 88
    },
    {
        "Altitude(m)": 705200.5805161283,
        "Argument of Periapsis(deg)": 0.0053353725558411,
        "Eccentricity": 0.0,
        "Inclination(deg)": 45.0,
        "Latitude(deg)": 35.2720450139088,
        "Longitude(deg)": -135.63697818148074,
        "Mean Anomaly(deg)": 54.49330148224101,
        "RAAN(deg)": 279.9949635642643,
        "Satellite Name": "Constellation 1 1235",
        "Satellite Number": 1235,
        "Semi-Major Axis(m)": 7083131.272910544,
        "Time(s)": 89
    },
    {
        "Altitude(m)": 705206.5133065316,
        "Argument of Periapsis(deg)": 0.005395320562086505,
        "Eccentricity": 0.0,
        "Inclination(deg)": 45.0,
        "Latitude(deg)": 35.30265022923449,
        "Longitude(deg)": -135.57689087589307,
        "Mean Anomaly(deg)": 54.55400262249089,
        "RAAN(deg)": 279.99490697509873,
        "Satellite Name": "Constellation 1 1235",
        "Satellite Number": 1235,
        "Semi-Major Axis(m)": 7083131.272910544,
        "Time(s)": 90
    },
    {
        "Altitude(m)": 705212.4441844583,
        "Argument of Periapsis(deg)": 0.00545526856833191,
        "Eccentricity": 0.0,
        "Inclination(deg)": 45.0,
        "Latitude(deg)": 35.33322119829082,
        "Longitude(deg)": -135.51675526641387,
        "Mean Anomaly(deg)": 54.61470376274079,
        "RAAN(deg)": 279.99485038593315,
        "Satellite Name": "Constellation 1 1235",
        "Satellite Number": 1235,
        "Semi-Major Axis(m)": 7083131.272910544,
        "Time(s)": 91
    },
    {
        "Altitude(m)": 705218.3731122768,
        "Argument of Periapsis(deg)": 0.005515216574577317,
        "Eccentricity": 0.0,
        "Inclination(deg)": 45.0,
        "Latitude(deg)": 35.36375785735196,
        "Longitude(deg)": -135.45657131607635,
        "Mean Anomaly(deg)": 54.67540490299072,
        "RAAN(deg)": 279.9947937967676,
        "Satellite Name": "Constellation 1 1235",
        "Satellite Number": 1235,
        "Semi-Major Axis(m)": 7083131.272910544,
        "Time(s)": 92
    },
    {
        "Altitude(m)": 705224.3000523673,
        "Argument of Periapsis(deg)": 0.005575164580822722,
        "Eccentricity": 0.0,
        "Inclination(deg)": 45.0,
        "Latitude(deg)": 35.39426014263008,
        "Longitude(deg)": -135.3963389881291,
        "Mean Anomaly(deg)": 54.73610604324061,
        "RAAN(deg)": 279.99473720760204,
        "Satellite Name": "Constellation 1 1235",
        "Satellite Number": 1235,
        "Semi-Major Axis(m)": 7083131.272910544,
        "Time(s)": 93
    },
    {
        "Altitude(m)": 705230.224967155,
        "Argument of Periapsis(deg)": 0.005635112587068129,
        "Eccentricity": 0.0,
        "Inclination(deg)": 45.0,
        "Latitude(deg)": 35.424727990275976,
        "Longitude(deg)": -135.33605824603697,
        "Mean Anomaly(deg)": 54.79680718349049,
        "RAAN(deg)": 279.99468061843646,
        "Satellite Name": "Constellation 1 1235",
        "Satellite Number": 1235,
        "Semi-Major Axis(m)": 7083131.272910544,
        "Time(s)": 94
    }
]